NORAD_CAT_ID,OBJECT_NAME,OBJECT_TYPE,EPOCH,MEAN_MOTION,ECCENTRICITY,INCLINATION,RA_OF_ASC_NODE,ARG_OF_PERICENTER,MEAN_ANOMALY,BSTAR,MEAN_MOTION_DOT,MEAN_MOTION_DDOT,TLE_LINE0,TLE_LINE1,TLE_LINE2,SEMIMAJOR_AXIS,PERIOD,APOGEE,PERIGEE,DECAYED
56457.0,STARLINK-5994,PAYLOAD,2024-03-14 11:01:13,14.98331027,0.0002957,70.0005,173.018,267.961,92.121,-1.8729e-06,-1.15e-06,0.0,0 STARLINK-5994,1 56457U 23064K   24074.45918792 -.00000115  00000-0 -18729-5 0  9995,2 56457  70.0005 173.0180 0002957 267.9610  92.1210 14.98331027 46615,6950.19,96.107,574.11,570.0,0.0
56457.0,STARLINK-5994,PAYLOAD,2024-03-15 11:03:14,14.98328748,0.0003021,70.0006,170.4935,268.4638,91.6175,-2.0708e-05,-3.4e-06,0.0,0 STARLINK-5994,1 56457U 23064K   24075.46058925 -.00000340  00000-0 -20708-4 0  9999,2 56457  70.0006 170.4935 0003021 268.4638  91.6175 14.98328748 47121,6950.197,96.107,574.161,569.962,0.0
56457.0,STARLINK-5994,PAYLOAD,2024-03-15 15:51:38,14.98331674,0.0003074,70.0004,169.9881,268.9003,91.1804,-1.6919e-05,-2.95e-06,0.0,0 STARLINK-5994,1 56457U 23064K   24075.66086717 -.00000295  00000-0 -16919-4 0  9999,2 56457  70.0004 169.9881 0003074 268.9003  91.1804 14.98331674 46799,6950.188,96.107,574.189,569.916,0.0
56457.0,STARLINK-5994,PAYLOAD,2024-03-16 12:41:24,14.98326012,0.0002959,70.0009,167.8014,267.3908,92.6913,-3.5103e-06,-1.35e-06,0.0,0 STARLINK-5994,1 56457U 23064K   24076.52875125 -.00000135  00000-0 -35103-5 0  9994,2 56457  70.0009 167.8014 0002959 267.3908  92.6913 14.98326012 47289,6950.205,96.107,574.127,570.014,0.0
56457.0,STARLINK-5994,PAYLOAD,2024-03-16 14:17:32,14.98327269,0.0002902,70.0008,167.6328,266.1502,93.9325,8.2803e-06,6e-08,0.0,0 STARLINK-5994,1 56457U 23064K   24076.59551014  .00000006  00000-0  82803-5 0  9993,2 56457  70.0008 167.6328 0002902 266.1502  93.9325 14.98327269 46936,6950.201,96.107,574.083,570.049,0.0
56457.0,STARLINK-5994,PAYLOAD,2024-03-16 15:53:40,14.98328083,0.0002901,70.0009,167.4647,265.7967,94.2861,1.7916e-05,1.21e-06,0.0,0 STARLINK-5994,1 56457U 23064K   24076.66226945  .00000121  00000-0  17916-4 0  9993,2 56457  70.0009 167.4647 0002901 265.7967  94.2861 14.98328083 46943,6950.199,96.107,574.08,570.048,0.0
56457.0,STARLINK-5994,PAYLOAD,2024-03-17 04:42:43,14.98340139,0.0003232,70.0002,166.1165,275.3536,84.7254,0.00011435,1.272e-05,0.0,0 STARLINK-5994,1 56457U 23064K   24077.19633817  .00001272  00000-0  11435-3 0  9999,2 56457  70.0002 166.1165 0003232 275.3536  84.7254 14.98340139 47389,6950.162,96.106,574.273,569.78,0.0
56457.0,STARLINK-5994,PAYLOAD,2024-03-17 14:19:30,14.98349219,0.0003173,70.0004,165.1077,269.4566,90.6229,0.0002034,2.336e-05,0.0,0 STARLINK-5994,1 56457U 23064K   24077.59688590  .00002336  00000-0  20340-3 0  9998,2 56457  70.0004 165.1077 0003173 269.4566  90.6229 14.98349219 47086,6950.133,96.106,574.204,569.793,0.0
56457.0,STARLINK-5994,PAYLOAD,2024-03-17 15:55:38,14.98350177,0.0003164,70.0005,164.9395,268.9909,91.0887,0.00021122,2.429e-05,0.0,0 STARLINK-5994,1 56457U 23064K   24077.66364426  .00002429  00000-0  21122-3 0  9997,2 56457  70.0005 164.9395 0003164 268.9909  91.0887 14.98350177 47453,6950.13,96.106,574.195,569.796,0.0
56457.0,STARLINK-5994,PAYLOAD,2024-03-18 11:09:18,14.98319234,0.0003363,70.0002,162.9207,265.8739,94.2036,-0.0001366,-1.722e-05,0.0,0 STARLINK-5994,1 56457U 23064K   24078.46479370 -.00001722  00000-0 -13660-3 0  9996,2 56457  70.0002 162.9207 0003363 265.8739  94.2036 14.98319234 47571,6950.226,96.108,574.429,569.754,0.0
56457.0,STARLINK-5994,PAYLOAD,2024-03-18 15:57:42,14.98320385,0.0003338,69.9999,162.4151,262.5704,97.5076,-0.00012056,-1.531e-05,0.0,0 STARLINK-5994,1 56457U 23064K   24078.66507309 -.00001531  00000-0 -12056-3 0  9998,2 56457  69.9999 162.4151 0003338 262.5704  97.5076 14.98320385 47247,6950.223,96.108,574.408,569.768,0.0
56457.0,STARLINK-5994,PAYLOAD,2024-03-19 12:47:25,14.98342261,0.0003211,70.0002,160.2271,266.3043,93.7749,-5.7244e-05,-7.76e-06,0.0,0 STARLINK-5994,1 56457U 23064K   24079.53293810 -.00000776  00000-0 -57244-4 0  9993,2 56457  70.0002 160.2271 0003211 266.3043  93.7749 14.98342261 47738,6950.155,96.106,574.252,569.788,0.0
56457.0,STARLINK-5994,PAYLOAD,2024-03-20 09:37:12,14.98310818,0.0002536,70.0019,158.0398,237.4026,122.6888,0.00011011,1.22e-05,0.0,0 STARLINK-5994,1 56457U 23064K   24080.40083408  .00001220  00000-0  11011-3 0  9995,2 56457  70.0019 158.0398 0002536 237.4026 122.6888 14.98310818 47863,6950.252,96.108,573.88,570.355,0.0
56457.0,STARLINK-5994,PAYLOAD,2024-03-20 12:49:28,14.98309576,0.0002534,70.0018,157.7036,242.0444,118.0459,8.1276e-05,8.76e-06,0.0,0 STARLINK-5994,1 56457U 23064K   24080.53435752  .00000876  00000-0  81276-4 0  9999,2 56457  70.0018 157.7036 0002534 242.0444 118.0459 14.98309576 47526,6950.256,96.108,573.882,570.36,0.0
56457.0,STARLINK-5994,PAYLOAD,2024-03-20 14:25:36,14.98308356,0.0002549,70.0016,157.5351,253.5142,106.5737,8.9005e-05,9.69e-06,0.0,0 STARLINK-5994,1 56457U 23064K   24080.60111926  .00000969  00000-0  89005-4 0  9992,2 56457  70.0016 157.5351 0002549 253.5142 106.5737 14.98308356 47537,6950.26,96.108,573.896,570.353,0.0
56457.0,STARLINK-5994,PAYLOAD,2024-03-21 12:51:28,14.98337319,0.000299,69.9999,155.1761,263.9137,96.1681,3.7699e-05,3.57e-06,0.0,0 STARLINK-5994,1 56457U 23064K   24081.53574456  .00000357  00000-0  37699-4 0  9999,2 56457  69.9999 155.1761 0002990 263.9137  96.1681 14.98337319 48031,6950.17,96.107,574.113,569.957,0.0
56457.0,STARLINK-5994,PAYLOAD,2024-03-21 14:27:36,14.98339206,0.000284,70.0003,155.0086,268.7118,91.3715,6.3169e-05,6.61e-06,0.0,0 STARLINK-5994,1 56457U 23064K   24081.60250278  .00000661  00000-0  63169-4 0  9999,2 56457  70.0003 155.0086 0002840 268.7118  91.3715 14.98339206 47687,6950.164,96.106,574.003,570.056,0.0
56457.0,STARLINK-5994,PAYLOAD,2024-03-22 12:53:28,14.98339755,0.0002846,70.0002,152.6518,268.6991,91.3842,0.00022563,2.601e-05,0.0,0 STARLINK-5994,1 56457U 23064K   24082.53713347  .00002601  00000-0  22563-3 0  9991,2 56457  70.0002 152.6518 0002846 268.6991  91.3842 14.98339755 48189,6950.163,96.106,574.006,570.05,0.0
56457.0,STARLINK-5994,PAYLOAD,2024-03-22 14:29:36,14.9834126,0.0002842,70.0003,152.4837,268.8895,91.1938,0.00023796,2.748e-05,0.0,0 STARLINK-5994,1 56457U 23064K   24082.60389176  .00002748  00000-0  23796-3 0  9999,2 56457  70.0003 152.4837 0002842 268.8895  91.1938 14.98341260 47832,6950.158,96.106,573.998,570.048,0.0
56457.0,STARLINK-5994,PAYLOAD,2024-03-23 04:54:50,14.98325642,0.0002845,70.0003,150.9685,269.007,91.0763,-0.00015397,-1.929e-05,0.0,0 STARLINK-5994,1 56457U 23064K   24083.20475321 -.00001929  00000-0 -15397-3 0  9994,2 56457  70.0003 150.9685 0002845 269.0070  91.0763 14.98325642 48288,6950.206,96.107,574.049,570.094,0.0
56457.0,STARLINK-5994,PAYLOAD,2024-03-23 14:31:39,14.98324074,0.0002789,70.0002,149.9594,267.8959,92.188,-0.00015648,-1.959e-05,0.0,0 STARLINK-5994,1 56457U 23064K   24083.60531534 -.00001959  00000-0 -15648-3 0  9999,2 56457  70.0002 149.9594 0002789 267.8959  92.1880 14.98324074 47989,6950.211,96.107,574.015,570.138,0.0
56457.0,STARLINK-5994,PAYLOAD,2024-03-24 04:56:50,14.98339021,0.000313,69.9976,148.4454,272.5771,87.5029,-2.5421e-05,-3.96e-06,0.0,0 STARLINK-5994,1 56457U 23064K   24084.20614053 -.00000396  00000-0 -25421-4 0  9999,2 56457  69.9976 148.4454 0003130 272.5771  87.5029 14.98339021 48433,6950.165,96.106,574.205,569.855,0.0
56457.0,STARLINK-5994,PAYLOAD,2024-03-24 12:57:29,14.98351199,0.0002132,70.0018,147.6043,259.4699,100.622,0.00011114,1.234e-05,0.0,0 STARLINK-5994,1 56457U 23064K   24084.53992543  .00001234  00000-0  11114-3 0  9991,2 56457  70.0018 147.6043 0002132 259.4699 100.6220 14.98351199 48487,6950.127,96.106,573.474,570.511,0.0
56457.0,STARLINK-5994,PAYLOAD,2024-03-25 04:58:51,14.98316477,0.0002419,70.0029,145.9233,237.5284,122.5641,0.00012725,1.425e-05,0.0,0 STARLINK-5994,1 56457U 23064K   24085.20754553  .00001425  00000-0  12725-3 0  9994,2 56457  70.0029 145.9233 0002419 237.5284 122.5641 14.98316477 48587,6950.235,96.108,573.781,570.418,0.0
56457.0,STARLINK-5994,PAYLOAD,2024-03-25 12:59:33,14.98311705,0.0002627,70.0001,145.0777,258.6912,101.3952,1.1643e-05,4.6e-07,0.0,0 STARLINK-5994,1 56457U 23064K   24085.54135446  .00000046  00000-0  11643-4 0  9992,2 56457  70.0001 145.0777 0002627 258.6912 101.3952 14.98311705 48639,6950.249,96.108,573.94,570.289,0.0
56457.0,STARLINK-5994,PAYLOAD,2024-03-25 21:00:13,14.98315721,0.0002781,69.9996,144.2345,271.8002,88.2839,-6.7611e-05,-8.99e-06,0.0,0 STARLINK-5994,1 56457U 23064K   24085.87515728 -.00000899  00000-0 -67611-4 0  9997,2 56457  69.9996 144.2345 0002781 271.8002  88.2839 14.98315721 48324,6950.237,96.108,574.035,570.169,0.0
56457.0,STARLINK-5994,PAYLOAD,2024-03-26 13:01:34,14.98322432,0.000285,69.9994,142.5527,265.2026,94.8808,-0.00030144,-3.687e-05,0.0,0 STARLINK-5994,1 56457U 23064K   24086.54276297 -.00003687  00000-0 -30144-3 0  9995,2 56457  69.9994 142.5527 0002850 265.2026  94.8808 14.98322432 48781,6950.216,96.107,574.062,570.1,0.0
56457.0,STARLINK-5994,PAYLOAD,2024-03-26 21:02:14,14.98329918,0.0002927,70.0005,141.7085,276.2833,83.7992,-0.00024421,-3.006e-05,0.0,0 STARLINK-5994,1 56457U 23064K   24086.87655713 -.00003006  00000-0 -24421-3 0  9991,2 56457  70.0005 141.7085 0002927 276.2833  83.7992 14.98329918 48833,6950.193,96.107,574.092,570.024,0.0
56457.0,STARLINK-5994,PAYLOAD,2024-03-27 13:03:35,14.98322098,0.0002947,69.9991,140.0276,265.2024,94.8799,0.00014264,1.609e-05,0.0,0 STARLINK-5994,1 56457U 23064K   24087.54415784  .00001609  00000-0  14264-3 0  9997,2 56457  69.9991 140.0276 0002947 265.2024  94.8799 14.98322098 48571,6950.217,96.108,574.131,570.034,0.0
56457.0,STARLINK-5994,PAYLOAD,2024-03-27 21:04:15,14.98328499,0.0002827,69.9996,139.1835,263.7546,96.3291,0.00015803,1.793e-05,0.0,0 STARLINK-5994,1 56457U 23064K   24087.87795471  .00001793  00000-0  15803-3 0  9991,2 56457  69.9996 139.1835 0002827 263.7546  96.3291 14.98328499 48985,6950.198,96.107,574.027,570.098,0.0
